[{"OBJECT_NAME":"STARLINK-36266","OBJECT_ID":"2026-038Z","EPOCH":"2026-03-07T04:00:03.000096","MEAN_MOTION":15.98740494,"ECCENTRICITY":0.0001148,"INCLINATION":97.2704,"RA_OF_ASC_NODE":76.2837,"ARG_OF_PERICENTER":67.8237,"MEAN_ANOMALY":351.1823,"EPHEMERIS_TYPE":0,"CLASSIFICATION_TYPE":"U","NORAD_CAT_ID":67984,"ELEMENT_SET_NO":999,"REV_AT_EPOCH":276,"BSTAR":-0.0034751,"MEAN_MOTION_DOT":-0.01627589,"MEAN_MOTION_DDOT":0.00079685},{"OBJECT_NAME":"STARLINK-36802","OBJECT_ID":"2026-038AA","EPOCH":"2026-03-07T04:00:03.000096","MEAN_MOTION":15.9898191,"ECCENTRICITY":0.0001025,"INCLINATION":97.2701,"RA_OF_ASC_NODE":76.2859,"ARG_OF_PERICENTER":68.8771,"MEAN_ANOMALY":356.0861,"EPHEMERIS_TYPE":0,"CLASSIFICATION_TYPE":"U","NORAD_CAT_ID":67985,"ELEMENT_SET_NO":999,"REV_AT_EPOCH":279,"BSTAR":-0.0033876,"MEAN_MOTION_DOT":-0.01608277,"MEAN_MOTION_DDOT":0.00078143},{"OBJECT_NAME":"STARLINK-36535","OBJECT_ID":"2026-039A","EPOCH":"2026-03-07T04:00:03.000096","MEAN_MOTION":15.91659858,"ECCENTRICITY":0.0001714,"INCLINATION":42.9974,"RA_OF_ASC_NODE":70.5302,"ARG_OF_PERICENTER":273.4555,"MEAN_ANOMALY":93.8405,"EPHEMERIS_TYPE":0,"CLASSIFICATION_TYPE":"U","NORAD_CAT_ID":67986,"ELEMENT_SET_NO":999,"REV_AT_EPOCH":247,"BSTAR":-0.0051234,"MEAN_MOTION_DOT":-0.01723015,"MEAN_MOTION_DDOT":0.00081628},{"OBJECT_NAME":"STARLINK-36744","OBJECT_ID":"2026-039B","EPOCH":"2026-03-07T04:00:03.000096","MEAN_MOTION":15.91810543,"ECCENTRICITY":0.0001793,"INCLINATION":42.9974,"RA_OF_ASC_NODE":70.524,"ARG_OF_PERICENTER":267.618,"MEAN_ANOMALY":101.9662,"EPHEMERIS_TYPE":0,"CLASSIFICATION_TYPE":"U","NORAD_CAT_ID":67987,"ELEMENT_SET_NO":999,"REV_AT_EPOCH":247,"BSTAR":-0.0050159,"MEAN_MOTION_DOT":-0.01700427,"MEAN_MOTION_DDOT":0.00079781},{"OBJECT_NAME":"STARLINK-36734","OBJECT_ID":"2026-039C","EPOCH":"2026-03-07T04:00:03.000096","MEAN_MOTION":15.91954773,"ECCENTRICITY":0.0001815,"INCLINATION":42.9975,"RA_OF_ASC_NODE":70.5172,"ARG_OF_PERICENTER":271.9571,"MEAN_ANOMALY":100.3332,"EPHEMERIS_TYPE":0,"CLASSIFICATION_TYPE":"U","NORAD_CAT_ID":67988,"ELEMENT_SET_NO":999,"REV_AT_EPOCH":247,"BSTAR":-0.0049528,"MEAN_MOTION_DOT":-0.01691782,"MEAN_MOTION_DDOT":0.00079145},{"OBJECT_NAME":"STARLINK-36957","OBJECT_ID":"2026-039D","EPOCH":"2026-03-07T04:00:03.000096","MEAN_MOTION":15.92110473,"ECCENTRICITY":0.0001822,"INCLINATION":42.9972,"RA_OF_ASC_NODE":70.511,"ARG_OF_PERICENTER":269.1877,"MEAN_ANOMALY":105.3899,"EPHEMERIS_TYPE":0,"CLASSIFICATION_TYPE":"U","NORAD_CAT_ID":67989,"ELEMENT_SET_NO":999,"REV_AT_EPOCH":247,"BSTAR":-0.0048834,"MEAN_MOTION_DOT":-0.01681775,"MEAN_MOTION_DDOT":0.00078402},{"OBJECT_NAME":"STARLINK-36951","OBJECT_ID":"2026-039E","EPOCH":"2026-03-06T14:00:01.000224","MEAN_MOTION":15.93961204,"ECCENTRICITY":0.00018806,"INCLINATION":42.9976,"RA_OF_ASC_NODE":74.1375,"ARG_OF_PERICENTER":268.7953,"MEAN_ANOMALY":358.5823,"EPHEMERIS_TYPE":0,"CLASSIFICATION_TYPE":"U","NORAD_CAT_ID":67990,"ELEMENT_SET_NO":999,"REV_AT_EPOCH":237,"BSTAR":-0.0038633216,"MEAN_MOTION_DOT":-0.01469209,"MEAN_MOTION_DDOT":0.00062268696},{"OBJECT_NAME":"STARLINK-36941","OBJECT_ID":"2026-039F","EPOCH":"2026-03-07T04:00:03.000096","MEAN_MOTION":15.92419509,"ECCENTRICITY":0.0001745,"INCLINATION":42.9973,"RA_OF_ASC_NODE":70.4989,"ARG_OF_PERICENTER":267.2477,"MEAN_ANOMALY":112.0612,"EPHEMERIS_TYPE":0,"CLASSIFICATION_TYPE":"U","NORAD_CAT_ID":67991,"ELEMENT_SET_NO":999,"REV_AT_EPOCH":247,"BSTAR":-0.0047994,"MEAN_MOTION_DOT":-0.01679745,"MEAN_MOTION_DDOT":0.00078464},{"OBJECT_NAME":"STARLINK-36950","OBJECT_ID":"2026-039G","EPOCH":"2026-03-07T04:00:03.000096","MEAN_MOTION":15.92567177,"ECCENTRICITY":0.000177,"INCLINATION":42.9973,"RA_OF_ASC_NODE":70.4926,"ARG_OF_PERICENTER":270.2859,"MEAN_ANOMALY":111.5647,"EPHEMERIS_TYPE":0,"CLASSIFICATION_TYPE":"U","NORAD_CAT_ID":67992,"ELEMENT_SET_NO":999,"REV_AT_EPOCH":247,"BSTAR":-0.0047606,"MEAN_MOTION_DOT":-0.01679083,"MEAN_MOTION_DDOT":0.00078521},{"OBJECT_NAME":"STARLINK-36975","OBJECT_ID":"2026-039H","EPOCH":"2026-03-07T04:00:03.000096","MEAN_MOTION":15.92715614,"ECCENTRICITY":0.0001735,"INCLINATION":42.9972,"RA_OF_ASC_NODE":70.4864,"ARG_OF_PERICENTER":270.3863,"MEAN_ANOMALY":113.8714,"EPHEMERIS_TYPE":0,"CLASSIFICATION_TYPE":"U","NORAD_CAT_ID":67993,"ELEMENT_SET_NO":999,"REV_AT_EPOCH":247,"BSTAR":-0.0047277,"MEAN_MOTION_DOT":-0.01680492,"MEAN_MOTION_DDOT":0.00078757},{"OBJECT_NAME":"STARLINK-36993","OBJECT_ID":"2026-039J","EPOCH":"2026-03-07T04:00:03.000096","MEAN_MOTION":15.92852923,"ECCENTRICITY":0.0001803,"INCLINATION":42.9973,"RA_OF_ASC_NODE":70.4802,"ARG_OF_PERICENTER":271.0991,"MEAN_ANOMALY":115.765,"EPHEMERIS_TYPE":0,"CLASSIFICATION_TYPE":"U","NORAD_CAT_ID":67994,"ELEMENT_SET_NO":999,"REV_AT_EPOCH":247,"BSTAR":-0.0046573,"MEAN_MOTION_DOT":-0.01667606,"MEAN_MOTION_DDOT":0.00077751},{"OBJECT_NAME":"STARLINK-36968","OBJECT_ID":"2026-039K","EPOCH":"2026-03-07T04:00:03.000096","MEAN_MOTION":15.93094531,"ECCENTRICITY":0.0001831,"INCLINATION":42.9973,"RA_OF_ASC_NODE":70.464,"ARG_OF_PERICENTER":270.5021,"MEAN_ANOMALY":122.6859,"EPHEMERIS_TYPE":0,"CLASSIFICATION_TYPE":"U","NORAD_CAT_ID":67995,"ELEMENT_SET_NO":999,"REV_AT_EPOCH":247,"BSTAR":-0.0046554,"MEAN_MOTION_DOT":-0.01688015,"MEAN_MOTION_DDOT":0.00079706},{"OBJECT_NAME":"STARLINK-36979","OBJECT_ID":"2026-039L","EPOCH":"2026-03-07T04:00:03.000096","MEAN_MOTION":15.92947181,"ECCENTRICITY":0.0001772,"INCLINATION":42.997,"RA_OF_ASC_NODE":70.47,"ARG_OF_PERICENTER":269.868,"MEAN_ANOMALY":120.8731,"EPHEMERIS_TYPE":0,"CLASSIFICATION_TYPE":"U","NORAD_CAT_ID":67996,"ELEMENT_SET_NO":999,"REV_AT_EPOCH":247,"BSTAR":-0.004685,"MEAN_MOTION_DOT":-0.01685646,"MEAN_MOTION_DDOT":0.00079384},{"OBJECT_NAME":"STARLINK-36994","OBJECT_ID":"2026-039M","EPOCH":"2026-03-07T04:00:03.000096","MEAN_MOTION":15.93376169,"ECCENTRICITY":0.0001538,"INCLINATION":42.9972,"RA_OF_ASC_NODE":70.4504,"ARG_OF_PERICENTER":264.5823,"MEAN_ANOMALY":133.8971,"EPHEMERIS_TYPE":0,"CLASSIFICATION_TYPE":"U","NORAD_CAT_ID":67997,"ELEMENT_SET_NO":999,"REV_AT_EPOCH":247,"BSTAR":-0.004605,"MEAN_MOTION_DOT":-0.01694597,"MEAN_MOTION_DDOT":0.00080505},{"OBJECT_NAME":"STARLINK-36988","OBJECT_ID":"2026-039N","EPOCH":"2026-03-07T04:00:03.000096","MEAN_MOTION":15.93232567,"ECCENTRICITY":0.0001749,"INCLINATION":42.9973,"RA_OF_ASC_NODE":70.4567,"ARG_OF_PERICENTER":269.204,"MEAN_ANOMALY":126.7993,"EPHEMERIS_TYPE":0,"CLASSIFICATION_TYPE":"U","NORAD_CAT_ID":67998,"ELEMENT_SET_NO":999,"REV_AT_EPOCH":247,"BSTAR":-0.0046363,"MEAN_MOTION_DOT":-0.01693295,"MEAN_MOTION_DDOT":0.00080276},{"OBJECT_NAME":"STARLINK-36926","OBJECT_ID":"2026-039P","EPOCH":"2026-03-07T04:00:03.000096","MEAN_MOTION":15.93518864,"ECCENTRICITY":0.0001659,"INCLINATION":42.9972,"RA_OF_ASC_NODE":70.4443,"ARG_OF_PERICENTER":269.8956,"MEAN_ANOMALY":131.1518,"EPHEMERIS_TYPE":0,"CLASSIFICATION_TYPE":"U","NORAD_CAT_ID":67999,"ELEMENT_SET_NO":999,"REV_AT_EPOCH":247,"BSTAR":-0.0045683,"MEAN_MOTION_DOT":-0.0169387,"MEAN_MOTION_DDOT":0.00080555}]
