STARLINK-36266          
1 67984U 26038Z   26066.16670139 -.01627589  79685-3 -34751-2 0  9996
2 67984  97.2704  76.2837 0001148  67.8237 351.1823 15.98740494  2764
STARLINK-36802          
1 67985U 26038AA  26066.16670139 -.01608277  78143-3 -33876-2 0  9995
2 67985  97.2701  76.2859 0001025  68.8771 356.0861 15.98981910  2793
STARLINK-36535          
1 67986U 26039A   26066.16670139 -.01723015  81628-3 -51234-2 0  9995
2 67986  42.9974  70.5302 0001714 273.4555  93.8405 15.91659858  2473
STARLINK-36744          
1 67987U 26039B   26066.16670139 -.01700427  79781-3 -50159-2 0  9990
2 67987  42.9974  70.5240 0001793 267.6180 101.9662 15.91810543  2477
STARLINK-36734          
1 67988U 26039C   26066.16670139 -.01691782  79145-3 -49528-2 0  9996
2 67988  42.9975  70.5172 0001815 271.9571 100.3332 15.91954773  2471
STARLINK-36957          
1 67989U 26039D   26066.16670139 -.01681775  78402-3 -48834-2 0  9992
2 67989  42.9972  70.5110 0001822 269.1877 105.3899 15.92110473  2472
STARLINK-36951          
1 67990U 26039E   26065.58334491 -.01469209  62269-3 -38633-2 0  9993
2 67990  42.9976  74.1375 0001880 268.7953 358.5823 15.93961204  2370
STARLINK-36941          
1 67991U 26039F   26066.16670139 -.01679745  78464-3 -47994-2 0  9993
2 67991  42.9973  70.4989 0001745 267.2477 112.0612 15.92419509  2478
STARLINK-36950          
1 67992U 26039G   26066.16670139 -.01679083  78521-3 -47606-2 0  9993
2 67992  42.9973  70.4926 0001770 270.2859 111.5647 15.92567177  2473
STARLINK-36975          
1 67993U 26039H   26066.16670139 -.01680492  78757-3 -47277-2 0  9995
2 67993  42.9972  70.4864 0001735 270.3863 113.8714 15.92715614  2472
STARLINK-36993          
1 67994U 26039J   26066.16670139 -.01667606  77751-3 -46573-2 0  9999
2 67994  42.9973  70.4802 0001803 271.0991 115.7650 15.92852923  2477
STARLINK-36968          
1 67995U 26039K   26066.16670139 -.01688015  79706-3 -46554-2 0  9998
2 67995  42.9973  70.4640 0001831 270.5021 122.6859 15.93094531  2479
STARLINK-36979          
1 67996U 26039L   26066.16670139 -.01685646  79384-3 -46850-2 0  9997
2 67996  42.9970  70.4700 0001772 269.8680 120.8731 15.92947181  2476
STARLINK-36994          
1 67997U 26039M   26066.16670139 -.01694597  80505-3 -46050-2 0  9992
2 67997  42.9972  70.4504 0001538 264.5823 133.8971 15.93376169  2475
STARLINK-36988          
1 67998U 26039N   26066.16670139 -.01693295  80276-3 -46363-2 0  9999
2 67998  42.9973  70.4567 0001749 269.2040 126.7993 15.93232567  2471
STARLINK-36926          
1 67999U 26039P   26066.16670139 -.01693870  80555-3 -45683-2 0  9993
2 67999  42.9972  70.4443 0001659 269.8956 131.1518 15.93518864  2476
